[
  {
    "OBJECT_NAME": "STARLINK-3109",
    "OBJECT_ID": "21082P",
    "EPOCH": "2025-11-11T02:43:43.186656",
    "MEAN_MOTION": 14.97519824,
    "ECCENTRICITY": 0.0002424,
    "INCLINATION": 69.9999,
    "RA_OF_ASC_NODE": 213.8367,
    "ARG_OF_PERICENTER": 272.1163,
    "MEAN_ANOMALY": 87.9718,
    "EPHEMERIS_TYPE": 0,
    "CLASSIFICATION_TYPE": "U",
    "NORAD_CAT_ID": 49143,
    "ELEMENT_SET_NO": 999,
    "REV_AT_EPOCH": 22981,
    "BSTAR": 0.00034407,
    "MEAN_MOTION_DOT": 3.93e-05,
    "MEAN_MOTION_DDOT": 0.0,
    "TLE_LINE1": "1 49143U 21082P   25315.11369429  .00003930  00000+0  34407-3 0  9990",
    "TLE_LINE2": "2 49143  69.9999 213.8367 0002424 272.1163  87.9718 14.97519824229810",
    "COMMENT": "Grouped by shell and plane from TLE"
  },
  {
    "OBJECT_NAME": "STARLINK-3116",
    "OBJECT_ID": "21082S",
    "EPOCH": "2025-11-11T04:13:53.515776",
    "MEAN_MOTION": 14.97530806,
    "ECCENTRICITY": 0.0002863,
    "INCLINATION": 69.9999,
    "RA_OF_ASC_NODE": 213.6838,
    "ARG_OF_PERICENTER": 271.4239,
    "MEAN_ANOMALY": 88.6592,
    "EPHEMERIS_TYPE": 0,
    "CLASSIFICATION_TYPE": "U",
    "NORAD_CAT_ID": 49146,
    "ELEMENT_SET_NO": 999,
    "REV_AT_EPOCH": 22986,
    "BSTAR": 0.00025111,
    "MEAN_MOTION_DOT": 2.844e-05,
    "MEAN_MOTION_DDOT": 0.0,
    "TLE_LINE1": "1 49146U 21082S   25315.17631384  .00002844  00000+0  25111-3 0  9996",
    "TLE_LINE2": "2 49146  69.9999 213.6838 0002863 271.4239  88.6592 14.97530806229863",
    "COMMENT": "Grouped by shell and plane from TLE"
  },
  {
    "OBJECT_NAME": "STARLINK-3048",
    "OBJECT_ID": "21082U",
    "EPOCH": "2025-11-11T04:01:51.925440",
    "MEAN_MOTION": 14.97531918,
    "ECCENTRICITY": 0.000287,
    "INCLINATION": 70.0003,
    "RA_OF_ASC_NODE": 213.6835,
    "ARG_OF_PERICENTER": 267.3469,
    "MEAN_ANOMALY": 92.7361,
    "EPHEMERIS_TYPE": 0,
    "CLASSIFICATION_TYPE": "U",
    "NORAD_CAT_ID": 49148,
    "ELEMENT_SET_NO": 999,
    "REV_AT_EPOCH": 22870,
    "BSTAR": 0.00027455000000000003,
    "MEAN_MOTION_DOT": 3.118e-05,
    "MEAN_MOTION_DDOT": 0.0,
    "TLE_LINE1": "1 49148U 21082U   25315.16796210  .00003118  00000+0  27455-3 0  9995",
    "TLE_LINE2": "2 49148  70.0003 213.6835 0002870 267.3469  92.7361 14.97531918228705",
    "COMMENT": "Grouped by shell and plane from TLE"
  },
  {
    "OBJECT_NAME": "STARLINK-3068",
    "OBJECT_ID": "21082AA",
    "EPOCH": "2025-11-11T03:55:51.300480",
    "MEAN_MOTION": 14.97529729,
    "ECCENTRICITY": 0.0002852,
    "INCLINATION": 70.0004,
    "RA_OF_ASC_NODE": 213.6978,
    "ARG_OF_PERICENTER": 271.7116,
    "MEAN_ANOMALY": 88.3716,
    "EPHEMERIS_TYPE": 0,
    "CLASSIFICATION_TYPE": "U",
    "NORAD_CAT_ID": 49154,
    "ELEMENT_SET_NO": 999,
    "REV_AT_EPOCH": 22978,
    "BSTAR": 0.00014155000000000003,
    "MEAN_MOTION_DOT": 1.562e-05,
    "MEAN_MOTION_DDOT": 0.0,
    "TLE_LINE1": "1 49154U 21082AA  25315.16378820  .00001562  00000+0  14155-3 0  9999",
    "TLE_LINE2": "2 49154  70.0004 213.6978 0002852 271.7116  88.3716 14.97529729229780",
    "COMMENT": "Grouped by shell and plane from TLE"
  },
  {
    "OBJECT_NAME": "STARLINK-3051",
    "OBJECT_ID": "21082AD",
    "EPOCH": "2025-11-11T03:48:58.548672",
    "MEAN_MOTION": 15.01143495,
    "ECCENTRICITY": 0.0001859,
    "INCLINATION": 70.0001,
    "RA_OF_ASC_NODE": 212.928,
    "ARG_OF_PERICENTER": 268.5708,
    "MEAN_ANOMALY": 91.524,
    "EPHEMERIS_TYPE": 0,
    "CLASSIFICATION_TYPE": "U",
    "NORAD_CAT_ID": 49157,
    "ELEMENT_SET_NO": 999,
    "REV_AT_EPOCH": 22982,
    "BSTAR": 0.0011559,
    "MEAN_MOTION_DOT": 0.00014775,
    "MEAN_MOTION_DDOT": 0.0,
    "TLE_LINE1": "1 49157U 21082AD  25315.15901098  .00014775  00000+0  11559-2 0  9994",
    "TLE_LINE2": "2 49157  70.0001 212.9280 0001859 268.5708  91.5240 15.01143495229826",
    "COMMENT": "Grouped by shell and plane from TLE"
  },
  {
    "OBJECT_NAME": "STARLINK-3088",
    "OBJECT_ID": "21082AK",
    "EPOCH": "2025-11-11T03:37:49.364256",
    "MEAN_MOTION": 14.97528411,
    "ECCENTRICITY": 0.0002874,
    "INCLINATION": 69.9999,
    "RA_OF_ASC_NODE": 213.7407,
    "ARG_OF_PERICENTER": 271.5592,
    "MEAN_ANOMALY": 88.5237,
    "EPHEMERIS_TYPE": 0,
    "CLASSIFICATION_TYPE": "U",
    "NORAD_CAT_ID": 49163,
    "ELEMENT_SET_NO": 999,
    "REV_AT_EPOCH": 22986,
    "BSTAR": 0.00011033,
    "MEAN_MOTION_DOT": 1.197e-05,
    "MEAN_MOTION_DDOT": 0.0,
    "TLE_LINE1": "1 49163U 21082AK  25315.15126579  .00001197  00000+0  11033-3 0  9996",
    "TLE_LINE2": "2 49163  69.9999 213.7407 0002874 271.5592  88.5237 14.97528411229864",
    "COMMENT": "Grouped by shell and plane from TLE"
  },
  {
    "OBJECT_NAME": "STARLINK-3106",
    "OBJECT_ID": "21082AL",
    "EPOCH": "2025-11-11T03:21:08.045280",
    "MEAN_MOTION": 14.9834477,
    "ECCENTRICITY": 0.0002678,
    "INCLINATION": 70.0005,
    "RA_OF_ASC_NODE": 213.3548,
    "ARG_OF_PERICENTER": 273.2799,
    "MEAN_ANOMALY": 86.8054,
    "EPHEMERIS_TYPE": 0,
    "CLASSIFICATION_TYPE": "U",
    "NORAD_CAT_ID": 49164,
    "ELEMENT_SET_NO": 999,
    "REV_AT_EPOCH": 22988,
    "BSTAR": 0.00028327,
    "MEAN_MOTION_DOT": 3.29e-05,
    "MEAN_MOTION_DDOT": 0.0,
    "TLE_LINE1": "1 49164U 21082AL  25315.13967645  .00003290  00000+0  28327-3 0  9992",
    "TLE_LINE2": "2 49164  70.0005 213.3548 0002678 273.2799  86.8054 14.98344770229883",
    "COMMENT": "Grouped by shell and plane from TLE"
  },
  {
    "OBJECT_NAME": "STARLINK-3089",
    "OBJECT_ID": "21082AN",
    "EPOCH": "2025-11-11T03:31:48.626976",
    "MEAN_MOTION": 14.97530543,
    "ECCENTRICITY": 0.0002753,
    "INCLINATION": 69.9999,
    "RA_OF_ASC_NODE": 213.755,
    "ARG_OF_PERICENTER": 270.833,
    "MEAN_ANOMALY": 89.2513,
    "EPHEMERIS_TYPE": 0,
    "CLASSIFICATION_TYPE": "U",
    "NORAD_CAT_ID": 49166,
    "ELEMENT_SET_NO": 999,
    "REV_AT_EPOCH": 22990,
    "BSTAR": 0.00014528,
    "MEAN_MOTION_DOT": 1.606e-05,
    "MEAN_MOTION_DDOT": 0.0,
    "TLE_LINE1": "1 49166U 21082AN  25315.14709059  .00001606  00000+0  14528-3 0  9995",
    "TLE_LINE2": "2 49166  69.9999 213.7550 0002753 270.8330  89.2513 14.97530543229903",
    "COMMENT": "Grouped by shell and plane from TLE"
  },
  {
    "OBJECT_NAME": "STARLINK-3046",
    "OBJECT_ID": "21082AR",
    "EPOCH": "2025-11-11T03:15:07.174080",
    "MEAN_MOTION": 14.98336664,
    "ECCENTRICITY": 0.000244,
    "INCLINATION": 69.9996,
    "RA_OF_ASC_NODE": 213.3792,
    "ARG_OF_PERICENTER": 276.5111,
    "MEAN_ANOMALY": 83.5771,
    "EPHEMERIS_TYPE": 0,
    "CLASSIFICATION_TYPE": "U",
    "NORAD_CAT_ID": 49169,
    "ELEMENT_SET_NO": 999,
    "REV_AT_EPOCH": 22871,
    "BSTAR": 0.00013782,
    "MEAN_MOTION_DOT": 1.552e-05,
    "MEAN_MOTION_DDOT": 0.0,
    "TLE_LINE1": "1 49169U 21082AR  25315.13549970  .00001552  00000+0  13782-3 0  9992",
    "TLE_LINE2": "2 49169  69.9996 213.3792 0002440 276.5111  83.5771 14.98336664228710",
    "COMMENT": "Grouped by shell and plane from TLE"
  },
  {
    "OBJECT_NAME": "STARLINK-3045",
    "OBJECT_ID": "21082AV",
    "EPOCH": "2025-11-11T02:57:06.330816",
    "MEAN_MOTION": 14.98313903,
    "ECCENTRICITY": 0.0002761,
    "INCLINATION": 69.9996,
    "RA_OF_ASC_NODE": 213.3937,
    "ARG_OF_PERICENTER": 272.0992,
    "MEAN_ANOMALY": 87.9851,
    "EPHEMERIS_TYPE": 0,
    "CLASSIFICATION_TYPE": "U",
    "NORAD_CAT_ID": 49173,
    "ELEMENT_SET_NO": 999,
    "REV_AT_EPOCH": 22871,
    "BSTAR": 0.00076461,
    "MEAN_MOTION_DOT": 9.038e-05,
    "MEAN_MOTION_DDOT": 0.0,
    "TLE_LINE1": "1 49173U 21082AV  25315.12298994  .00009038  00000+0  76461-3 0  9993",
    "TLE_LINE2": "2 49173  69.9996 213.3937 0002761 272.0992  87.9851 14.98313903228718",
    "COMMENT": "Grouped by shell and plane from TLE"
  },
  {
    "OBJECT_NAME": "STARLINK-3087",
    "OBJECT_ID": "21082AX",
    "EPOCH": "2025-11-11T04:14:58.033248",
    "MEAN_MOTION": 14.97511969,
    "ECCENTRICITY": 0.0002577,
    "INCLINATION": 70.0032,
    "RA_OF_ASC_NODE": 213.8097,
    "ARG_OF_PERICENTER": 345.4842,
    "MEAN_ANOMALY": 14.6243,
    "EPHEMERIS_TYPE": 0,
    "CLASSIFICATION_TYPE": "U",
    "NORAD_CAT_ID": 49175,
    "ELEMENT_SET_NO": 999,
    "REV_AT_EPOCH": 22870,
    "BSTAR": 0.0,
    "MEAN_MOTION_DOT": -3.26e-06,
    "MEAN_MOTION_DDOT": 0.0,
    "TLE_LINE1": "1 49175U 21082AX  25315.17706057 -.00000326  00000+0 -20051-4 0  9992",
    "TLE_LINE2": "2 49175  70.0032 213.8097 0002577 345.4842  14.6243 14.97511969228702",
    "COMMENT": "Grouped by shell and plane from TLE"
  },
  {
    "OBJECT_NAME": "STARLINK-3050",
    "OBJECT_ID": "21082BC",
    "EPOCH": "2025-11-11T03:09:06.670080",
    "MEAN_MOTION": 14.9833696,
    "ECCENTRICITY": 0.0002782,
    "INCLINATION": 69.9997,
    "RA_OF_ASC_NODE": 213.3771,
    "ARG_OF_PERICENTER": 273.3845,
    "MEAN_ANOMALY": 86.6996,
    "EPHEMERIS_TYPE": 0,
    "CLASSIFICATION_TYPE": "U",
    "NORAD_CAT_ID": 49180,
    "ELEMENT_SET_NO": 999,
    "REV_AT_EPOCH": 22988,
    "BSTAR": 0.00012949,
    "MEAN_MOTION_DOT": 1.453e-05,
    "MEAN_MOTION_DDOT": 0.0,
    "TLE_LINE1": "1 49180U 21082BC  25315.13132720  .00001453  00000+0  12949-3 0  9990",
    "TLE_LINE2": "2 49180  69.9997 213.3771 0002782 273.3845  86.6996 14.98336960229880",
    "COMMENT": "Grouped by shell and plane from TLE"
  },
  {
    "OBJECT_NAME": "STARLINK-3649",
    "OBJECT_ID": "22025AA",
    "EPOCH": "2025-11-11T02:19:52.098528",
    "MEAN_MOTION": 15.08853979,
    "ECCENTRICITY": 0.0001709,
    "INCLINATION": 53.2172,
    "RA_OF_ASC_NODE": 211.5058,
    "ARG_OF_PERICENTER": 93.5232,
    "MEAN_ANOMALY": 266.5956,
    "EPHEMERIS_TYPE": 0,
    "CLASSIFICATION_TYPE": "U",
    "NORAD_CAT_ID": 51980,
    "ELEMENT_SET_NO": 999,
    "REV_AT_EPOCH": 20315,
    "BSTAR": 0.0,
    "MEAN_MOTION_DOT": -5.34e-05,
    "MEAN_MOTION_DDOT": 0.0,
    "TLE_LINE1": "1 51980U 22025AA  25315.09713077 -.00005340  00000+0 -31755-3 0  9991",
    "TLE_LINE2": "2 51980  53.2172 211.5058 0001709  93.5232 266.5956 15.08853979203153",
    "COMMENT": "Grouped by shell and plane from TLE"
  }
]